STARLINK-11267 [DTC]    
1 60994U 24158E   25110.14168158  .00003212  00000+0  31331-4 0  9993
2 60994  53.1586  76.5402 0002074 118.2161 241.9066 15.69741207 36789
STARLINK-11269 [DTC]    
1 60995U 24158F   25110.90084846 -.00000157  00000+0  35649-5 0  9992
2 60995  53.1592  72.7417 0001306  90.9691 269.1477 15.69698326 36884
STARLINK-11281 [DTC]    
1 60996U 24158G   25110.89594187 -.00000739  00000+0 -12407-5 0  9999
2 60996  53.1583  72.7092 0001415 100.9618 259.1559 15.69698970 36881
STARLINK-11260 [DTC]    
1 60997U 24158H   25110.85410431 -.00001156  00000+0 -30663-5 0  9993
2 60997  53.1588  53.0596 0001281  86.0391 274.0776 15.76716197 37216
STARLINK-11287 [DTC]    
1 60998U 24158J   25110.89103651 -.00000915  00000+0 -26965-5 0  9993
2 60998  53.1573  72.6729 0001188 106.3915 253.7233 15.69703576 36917
STARLINK-11270 [DTC]    
1 60999U 24158K   25110.18574633  .00001625  00000+0  18263-4 0  9996
2 60999  53.1584  76.0952 0001331  68.5858 291.5301 15.69724710 36796
STARLINK-11290 [DTC]    
1 61000U 24158L   25110.18085163  .00000241  00000+0  68500-5 0  9998
2 61000  53.1585  76.0624 0001379  65.2299 294.8862 15.69714742 36840
STARLINK-11274 [DTC]    
1 61001U 24158M   25110.87141323  .00000126  00000+0  59101-5 0  9995
2 61001  53.1576  72.5483 0001668  68.3714 291.7481 15.69700042 36887
STARLINK-11288 [DTC]    
1 61002U 24158N   25110.16614006  .00003053  00000+0  30056-4 0  9990
2 61002  53.1589  75.9645 0001057 107.6215 252.4918 15.69699752 36776
STARLINK-32279          
1 61003U 24158P   25110.33629642  .00000595  00000+0  32227-4 0  9992
2 61003  53.1598 127.5305 0001294  54.3524 305.7597 15.30193759 36148
STARLINK-32336          
1 61004U 24158Q   25110.33207659  .00000693  00000+0  35515-4 0  9995
2 61004  53.1596 127.5018 0001167  91.3717 268.7418 15.30194567 36140
STARLINK-32284          
1 61005U 24158R   25110.33946527 -.00000284  00000+0  25468-5 0  9994
2 61005  53.1596 127.5539 0001103  65.7182 294.3934 15.30198144 36075
STARLINK-32282          
1 61006U 24158S   25110.32257704 -.00001641  00000+0 -43297-4 0  9994
2 61006  53.1603 127.4389 0001176 100.0434 260.0700 15.30206039 36142
STARLINK-32360          
1 61007U 24158T   25110.91876631 -.00000224  00000+0  45649-5 0  9995
2 61007  53.1602 109.4713 0001345  82.2887 277.8266 15.30192348 36379
STARLINK-32340          
1 61008U 24158U   25110.48063424  .00000644  00000+0  33852-4 0  9993
2 61008  53.1589 126.9381 0001360  55.7196 304.3933 15.30212737 36095
STARLINK-32357          
1 61009U 24158V   25110.94550094 -.00000088  00000+0  77824-5 0  9990
2 61009  53.1604  86.7884 0001621 117.4232 242.6938 15.39632435 36697
STARLINK-32347          
1 61010U 24158W   25110.32573999  .00002274  00000+0  88889-4 0  9993
2 61010  53.1600 127.4591 0001253  92.6569 267.4575 15.30197985 36072
STARLINK-11286 [DTC]    
1 61050U 24164A   25110.28121914  .00013441  00000+0  11532-3 0  9993
2 61050  53.1579 105.5811 0001337  99.6914 260.4255 15.69774178 34621
STARLINK-11252 [DTC]    
1 61051U 24164B   25110.97672246 -.00001464  00000+0 -72285-5 0  9997
2 61051  53.1578 102.0939 0001319 100.3192 259.7975 15.69697775 34731
STARLINK-11284 [DTC]    
1 61052U 24164C   25110.27143935  .00002652  00000+0  26732-4 0  9992
2 61052  53.1583 105.5178 0001687  61.9736 298.1452 15.69726810 34623
STARLINK-11230 [DTC]    
1 61053U 24164D   25110.96691554 -.00001069  00000+0 -39655-5 0  9996
2 61053  53.1592 102.0300 0001531  86.3049 273.8144 15.69697783 34735
STARLINK-11294 [DTC]    
1 61054U 24164E   25110.96201169 -.00001301  00000+0 -58796-5 0  9992
2 61054  53.1580 101.9971 0001351  69.0867 291.0295 15.69696370 34731
STARLINK-11268 [DTC]    
1 61055U 24164F   25110.25672474  .00000209  00000+0  65837-5 0  9994
2 61055  53.1588 105.4134 0001390  98.2428 261.8748 15.69719037 34622
STARLINK-11156 [DTC]    
1 61056U 24164G   25110.25182242  .00004530  00000+0  42261-4 0  9990
2 61056  53.1591 105.3822 0001626  89.2935 270.8269 15.69694928 34624
STARLINK-11231 [DTC]    
1 61057U 24164H   25110.94739074 -.00001510  00000+0 -76102-5 0  9997
2 61057  53.1584 102.6340 0001358  81.2442 278.8730 15.69699312 34723
STARLINK-11299 [DTC]    
1 61058U 24164J   25110.24211132  .00000596  00000+0  97816-5 0  9997
2 61058  53.1591 106.0542 0001494  65.0454 295.0719 15.69719691 34617
STARLINK-11154 [DTC]    
1 61059U 24164K   25110.23720785 -.00000480  00000+0  90047-6 0  9999
2 61059  53.1588 106.0217 0001498  82.8471 277.2717 15.69712915 34615
STARLINK-11297 [DTC]    
1 61060U 24164L   25110.23230411  .00001022  00000+0  13301-4 0  9991
2 61060  53.1583 105.9912 0001603  57.7440 302.3734 15.69710025 35482
STARLINK-11233 [DTC]    
1 61061U 24164M   25110.41840710 -.00000776  00000+0 -15481-5 0  9990
2 61061  53.1587 105.0137 0001261  70.5031 289.6123 15.69709218 34644
STARLINK-11236 [DTC]    
1 61062U 24164N   25110.28615936  .00000528  00000+0  92176-5 0  9995
2 61062  53.1587 105.6076 0001155  93.7917 266.3233 15.69715952 34629
