OBJECT_NAME,OBJECT_ID,EPOCH,MEAN_MOTION,ECCENTRICITY,INCLINATION,RA_OF_ASC_NODE,ARG_OF_PERICENTER,MEAN_ANOMALY,EPHEMERIS_TYPE,CLASSIFICATION_TYPE,NORAD_CAT_ID,ELEMENT_SET_NO,REV_AT_EPOCH,BSTAR,MEAN_MOTION_DOT,MEAN_MOTION_DDOT
STARLINK-11267 [DTC],2024-158E,2025-04-20T03:24:01.288512,15.69741207,.0002074,53.1586,76.5402,118.2161,241.9066,0,U,60994,999,3678,.31331E-4,.3212E-4,0
STARLINK-11269 [DTC],2024-158F,2025-04-20T21:37:13.306944,15.69698326,.0001306,53.1592,72.7417,90.9691,269.1477,0,U,60995,999,3688,.35649E-5,-.157E-5,0
STARLINK-11281 [DTC],2024-158G,2025-04-20T21:30:09.377568,15.69698970,.0001415,53.1583,72.7092,100.9618,259.1559,0,U,60996,999,3688,-.12407E-5,-.739E-5,0
STARLINK-11260 [DTC],2024-158H,2025-04-20T20:29:54.612384,15.76716197,.0001281,53.1588,53.0596,86.0391,274.0776,0,U,60997,999,3721,-.30663E-5,-.1156E-4,0
STARLINK-11287 [DTC],2024-158J,2025-04-20T21:23:05.554464,15.69703576,.0001188,53.1573,72.6729,106.3915,253.7233,0,U,60998,999,3691,-.26965E-5,-.915E-5,0
STARLINK-11270 [DTC],2024-158K,2025-04-20T04:27:28.482912,15.69724710,.0001331,53.1584,76.0952,68.5858,291.5301,0,U,60999,999,3679,.18263E-4,.1625E-4,0
STARLINK-11290 [DTC],2024-158L,2025-04-20T04:20:25.580832,15.69714742,.0001379,53.1585,76.0624,65.2299,294.8862,0,U,61000,999,3684,.685E-5,.241E-5,0
STARLINK-11274 [DTC],2024-158M,2025-04-20T20:54:50.103072,15.69700042,.0001668,53.1576,72.5483,68.3714,291.7481,0,U,61001,999,3688,.59101E-5,.126E-5,0
STARLINK-11288 [DTC],2024-158N,2025-04-20T03:59:14.501184,15.69699752,.0001057,53.1589,75.9645,107.6215,252.4918,0,U,61002,999,3677,.30056E-4,.3053E-4,0
STARLINK-32279,2024-158P,2025-04-20T08:04:16.010688,15.30193759,.0001294,53.1598,127.5305,54.3524,305.7597,0,U,61003,999,3614,.32227E-4,.595E-5,0
STARLINK-32336,2024-158Q,2025-04-20T07:58:11.417376,15.30194567,.0001167,53.1596,127.5018,91.3717,268.7418,0,U,61004,999,3614,.35515E-4,.693E-5,0
STARLINK-32284,2024-158R,2025-04-20T08:08:49.799328,15.30198144,.0001103,53.1596,127.5539,65.7182,294.3934,0,U,61005,999,3607,.25468E-5,-.284E-5,0
STARLINK-32282,2024-158S,2025-04-20T07:44:30.656256,15.30206039,.0001176,53.1603,127.4389,100.0434,260.0700,0,U,61006,999,3614,-.43297E-4,-.1641E-4,0
STARLINK-32360,2024-158T,2025-04-20T22:03:01.409184,15.30192348,.0001345,53.1602,109.4713,82.2887,277.8266,0,U,61007,999,3637,.45649E-5,-.224E-5,0
STARLINK-32340,2024-158U,2025-04-20T11:32:06.798336,15.30212737,.000136,53.1589,126.9381,55.7196,304.3933,0,U,61008,999,3609,.33852E-4,.644E-5,0
STARLINK-32357,2024-158V,2025-04-20T22:41:31.281216,15.39632435,.0001621,53.1604,86.7884,117.4232,242.6938,0,U,61009,999,3669,.77824E-5,-.88E-6,0
STARLINK-32347,2024-158W,2025-04-20T07:49:03.935136,15.30197985,.0001253,53.1600,127.4591,92.6569,267.4575,0,U,61010,999,3607,.88889E-4,.2274E-4,0
STARLINK-11286 [DTC],2024-164A,2025-04-20T06:44:57.333696,15.69774178,.0001337,53.1579,105.5811,99.6914,260.4255,0,U,61050,999,3462,.11532E-3,.13441E-3,0
STARLINK-11252 [DTC],2024-164B,2025-04-20T23:26:28.820544,15.69697775,.0001319,53.1578,102.0939,100.3192,259.7975,0,U,61051,999,3473,-.72285E-5,-.1464E-4,0
STARLINK-11284 [DTC],2024-164C,2025-04-20T06:30:52.359840,15.69726810,.0001687,53.1583,105.5178,61.9736,298.1452,0,U,61052,999,3462,.26732E-4,.2652E-4,0
STARLINK-11230 [DTC],2024-164D,2025-04-20T23:12:21.502656,15.69697783,.0001531,53.1592,102.0300,86.3049,273.8144,0,U,61053,999,3473,-.39655E-5,-.1069E-4,0
STARLINK-11294 [DTC],2024-164E,2025-04-20T23:05:17.810016,15.69696370,.0001351,53.1580,101.9971,69.0867,291.0295,0,U,61054,999,3473,-.58796E-5,-.1301E-4,0
STARLINK-11268 [DTC],2024-164F,2025-04-20T06:09:41.017536,15.69719037,.000139,53.1588,105.4134,98.2428,261.8748,0,U,61055,999,3462,.65837E-5,.209E-5,0
STARLINK-11156 [DTC],2024-164G,2025-04-20T06:02:37.457088,15.69694928,.0001626,53.1591,105.3822,89.2935,270.8269,0,U,61056,999,3462,.42261E-4,.453E-4,0
STARLINK-11231 [DTC],2024-164H,2025-04-20T22:44:14.559936,15.69699312,.0001358,53.1584,102.6340,81.2442,278.8730,0,U,61057,999,3472,-.76102E-5,-.151E-4,0
STARLINK-11299 [DTC],2024-164J,2025-04-20T05:48:38.418048,15.69719691,.0001494,53.1591,106.0542,65.0454,295.0719,0,U,61058,999,3461,.97816E-5,.596E-5,0
STARLINK-11154 [DTC],2024-164K,2025-04-20T05:41:34.758240,15.69712915,.0001498,53.1588,106.0217,82.8471,277.2717,0,U,61059,999,3461,.90047E-6,-.48E-5,0
STARLINK-11297 [DTC],2024-164L,2025-04-20T05:34:31.075104,15.69710025,.0001603,53.1583,105.9912,57.7440,302.3734,0,U,61060,999,3548,.13301E-4,.1022E-4,0
STARLINK-11233 [DTC],2024-164M,2025-04-20T10:02:30.373440,15.69709218,.0001261,53.1587,105.0137,70.5031,289.6123,0,U,61061,999,3464,-.15481E-5,-.776E-5,0
STARLINK-11236 [DTC],2024-164N,2025-04-20T06:52:04.168704,15.69715952,.0001155,53.1587,105.6076,93.7917,266.3233,0,U,61062,999,3462,.92176E-5,.528E-5,0
